[{"OBJECT_NAME":"FENGYUN 1C DEB","OBJECT_ID":"1999-025BUG","EPOCH":"2026-04-02T15:05:57.811776","MEAN_MOTION":14.74429476,"ECCENTRICITY":0.00576525,"INCLINATION":98.9342,"RA_OF_ASC_NODE":50.4913,"ARG_OF_PERICENTER":86.6253,"MEAN_ANOMALY":274.1546,"EPHEMERIS_TYPE":0,"CLASSIFICATION_TYPE":"U","NORAD_CAT_ID":31444,"ELEMENT_SET_NO":999,"REV_AT_EPOCH":99120,"BSTAR":0.0053307758,"MEAN_MOTION_DOT":0.00036466,"MEAN_MOTION_DDOT":0},{"OBJECT_NAME":"FENGYUN 1C DEB","OBJECT_ID":"1999-025BUK","EPOCH":"2026-04-02T20:20:12.584832","MEAN_MOTION":14.24185839,"ECCENTRICITY":0.02305462,"INCLINATION":98.9743,"RA_OF_ASC_NODE":141.6547,"ARG_OF_PERICENTER":35.3331,"MEAN_ANOMALY":326.2881,"EPHEMERIS_TYPE":0,"CLASSIFICATION_TYPE":"U","NORAD_CAT_ID":31447,"ELEMENT_SET_NO":999,"REV_AT_EPOCH":66433,"BSTAR":0.00025711665,"MEAN_MOTION_DOT":7.29e-6,"MEAN_MOTION_DDOT":0},{"OBJECT_NAME":"FENGYUN 1C DEB","OBJECT_ID":"1999-025BUL","EPOCH":"2026-03-21T18:29:44.882304","MEAN_MOTION":14.28205934,"ECCENTRICITY":0.00575921,"INCLINATION":98.4993,"RA_OF_ASC_NODE":94.4194,"ARG_OF_PERICENTER":273.9093,"MEAN_ANOMALY":85.5506,"EPHEMERIS_TYPE":0,"CLASSIFICATION_TYPE":"U","NORAD_CAT_ID":31448,"ELEMENT_SET_NO":999,"REV_AT_EPOCH":65717,"BSTAR":0.00060852012,"MEAN_MOTION_DOT":1.5e-5,"MEAN_MOTION_DDOT":0},{"OBJECT_NAME":"FENGYUN 1C DEB","OBJECT_ID":"1999-025BUM","EPOCH":"2026-03-31T21:52:39.347328","MEAN_MOTION":14.33872598,"ECCENTRICITY":0.01437078,"INCLINATION":98.5341,"RA_OF_ASC_NODE":153.1416,"ARG_OF_PERICENTER":305.6824,"MEAN_ANOMALY":53.1055,"EPHEMERIS_TYPE":0,"CLASSIFICATION_TYPE":"U","NORAD_CAT_ID":31449,"ELEMENT_SET_NO":999,"REV_AT_EPOCH":99201,"BSTAR":0.00019018439,"MEAN_MOTION_DOT":5.46e-6,"MEAN_MOTION_DDOT":0},{"OBJECT_NAME":"FENGYUN 1C DEB","OBJECT_ID":"1999-025BUP","EPOCH":"2026-04-03T08:36:54.257184","MEAN_MOTION":14.13790427,"ECCENTRICITY":0.00301896,"INCLINATION":98.7463,"RA_OF_ASC_NODE":138.1171,"ARG_OF_PERICENTER":253.8326,"MEAN_ANOMALY":121.685,"EPHEMERIS_TYPE":0,"CLASSIFICATION_TYPE":"U","NORAD_CAT_ID":31451,"ELEMENT_SET_NO":999,"REV_AT_EPOCH":97587,"BSTAR":0.00046568477,"MEAN_MOTION_DOT":8.42e-6,"MEAN_MOTION_DDOT":0},{"OBJECT_NAME":"FENGYUN 1C DEB","OBJECT_ID":"1999-025BUQ","EPOCH":"2026-04-01T16:45:26.010144","MEAN_MOTION":14.15355593,"ECCENTRICITY":0.00400491,"INCLINATION":98.6716,"RA_OF_ASC_NODE":80.5117,"ARG_OF_PERICENTER":172.2032,"MEAN_ANOMALY":187.9773,"EPHEMERIS_TYPE":0,"CLASSIFICATION_TYPE":"U","NORAD_CAT_ID":31452,"ELEMENT_SET_NO":999,"REV_AT_EPOCH":97761,"BSTAR":0.00034926232,"MEAN_MOTION_DOT":6.43e-6,"MEAN_MOTION_DDOT":0},{"OBJECT_NAME":"FENGYUN 1C DEB","OBJECT_ID":"1999-025BUT","EPOCH":"2026-04-04T04:36:47.969568","MEAN_MOTION":14.11587605,"ECCENTRICITY":0.02186017,"INCLINATION":98.587,"RA_OF_ASC_NODE":82.6015,"ARG_OF_PERICENTER":90.0899,"MEAN_ANOMALY":272.5322,"EPHEMERIS_TYPE":0,"CLASSIFICATION_TYPE":"U","NORAD_CAT_ID":31455,"ELEMENT_SET_NO":999,"REV_AT_EPOCH":97690,"BSTAR":0.00038740931,"MEAN_MOTION_DOT":8.4e-6,"MEAN_MOTION_DDOT":0},{"OBJECT_NAME":"FENGYUN 1C DEB","OBJECT_ID":"1999-025BUU","EPOCH":"2026-04-02T00:51:30.204000","MEAN_MOTION":14.4316085,"ECCENTRICITY":0.00664001,"INCLINATION":98.5754,"RA_OF_ASC_NODE":200.0494,"ARG_OF_PERICENTER":343.5907,"MEAN_ANOMALY":16.3133,"EPHEMERIS_TYPE":0,"CLASSIFICATION_TYPE":"U","NORAD_CAT_ID":31456,"ELEMENT_SET_NO":999,"REV_AT_EPOCH":99057,"BSTAR":0.00073085132,"MEAN_MOTION_DOT":2.475e-5,"MEAN_MOTION_DDOT":0},{"OBJECT_NAME":"FENGYUN 1C DEB","OBJECT_ID":"1999-025BUX","EPOCH":"2026-04-01T11:30:42.339744","MEAN_MOTION":14.45444453,"ECCENTRICITY":0.00918453,"INCLINATION":98.1717,"RA_OF_ASC_NODE":0.5915,"ARG_OF_PERICENTER":157.3897,"MEAN_ANOMALY":203.1382,"EPHEMERIS_TYPE":0,"CLASSIFICATION_TYPE":"U","NORAD_CAT_ID":31459,"ELEMENT_SET_NO":999,"REV_AT_EPOCH":66142,"BSTAR":0.0011889065,"MEAN_MOTION_DOT":4.368e-5,"MEAN_MOTION_DDOT":0},{"OBJECT_NAME":"FENGYUN 1C DEB","OBJECT_ID":"1999-025BVA","EPOCH":"2026-04-03T06:41:42.228672","MEAN_MOTION":14.1316574,"ECCENTRICITY":0.0031175,"INCLINATION":98.6828,"RA_OF_ASC_NODE":113.3972,"ARG_OF_PERICENTER":246.8769,"MEAN_ANOMALY":174.1277,"EPHEMERIS_TYPE":0,"CLASSIFICATION_TYPE":"U","NORAD_CAT_ID":31462,"ELEMENT_SET_NO":999,"REV_AT_EPOCH":97431,"BSTAR":0.00043257,"MEAN_MOTION_DOT":7.7e-6,"MEAN_MOTION_DDOT":0},{"OBJECT_NAME":"FENGYUN 1C DEB","OBJECT_ID":"1999-025BVB","EPOCH":"2026-04-04T06:12:23.992128","MEAN_MOTION":14.37380675,"ECCENTRICITY":0.02129194,"INCLINATION":99.0928,"RA_OF_ASC_NODE":87.3135,"ARG_OF_PERICENTER":69.8126,"MEAN_ANOMALY":292.582,"EPHEMERIS_TYPE":0,"CLASSIFICATION_TYPE":"U","NORAD_CAT_ID":31463,"ELEMENT_SET_NO":999,"REV_AT_EPOCH":66336,"BSTAR":0.00072884189,"MEAN_MOTION_DOT":2.774e-5,"MEAN_MOTION_DDOT":0},{"OBJECT_NAME":"FENGYUN 1C DEB","OBJECT_ID":"1999-025BVC","EPOCH":"2026-04-02T09:40:24.687264","MEAN_MOTION":14.12609451,"ECCENTRICITY":0.00425812,"INCLINATION":98.7755,"RA_OF_ASC_NODE":142.0577,"ARG_OF_PERICENTER":288.8379,"MEAN_ANOMALY":87.0006,"EPHEMERIS_TYPE":0,"CLASSIFICATION_TYPE":"U","NORAD_CAT_ID":31464,"ELEMENT_SET_NO":999,"REV_AT_EPOCH":96242,"BSTAR":0.00033634408,"MEAN_MOTION_DOT":5.84e-6,"MEAN_MOTION_DDOT":0},{"OBJECT_NAME":"FENGYUN 1C DEB","OBJECT_ID":"1999-025BVE","EPOCH":"2026-04-03T01:52:13.083744","MEAN_MOTION":14.18663587,"ECCENTRICITY":0.02992583,"INCLINATION":99.0979,"RA_OF_ASC_NODE":30.9776,"ARG_OF_PERICENTER":352.0557,"MEAN_ANOMALY":7.5934,"EPHEMERIS_TYPE":0,"CLASSIFICATION_TYPE":"U","NORAD_CAT_ID":31466,"ELEMENT_SET_NO":999,"REV_AT_EPOCH":97907,"BSTAR":0.00037367582,"MEAN_MOTION_DOT":1.154e-5,"MEAN_MOTION_DDOT":0},{"OBJECT_NAME":"FENGYUN 1C DEB","OBJECT_ID":"1999-025BVG","EPOCH":"2026-03-30T17:09:28.877184","MEAN_MOTION":14.47108462,"ECCENTRICITY":0.01646213,"INCLINATION":98.1753,"RA_OF_ASC_NODE":87.0946,"ARG_OF_PERICENTER":196.6211,"MEAN_ANOMALY":162.9549,"EPHEMERIS_TYPE":0,"CLASSIFICATION_TYPE":"U","NORAD_CAT_ID":31468,"ELEMENT_SET_NO":999,"REV_AT_EPOCH":68933,"BSTAR":0.00034189796,"MEAN_MOTION_DOT":1.427e-5,"MEAN_MOTION_DDOT":0},{"OBJECT_NAME":"FENGYUN 1C DEB","OBJECT_ID":"1999-025BVK","EPOCH":"2026-03-12T10:54:16.182144","MEAN_MOTION":14.1594815,"ECCENTRICITY":0.0147601,"INCLINATION":97.9747,"RA_OF_ASC_NODE":310.7754,"ARG_OF_PERICENTER":94.6801,"MEAN_ANOMALY":267.125,"EPHEMERIS_TYPE":0,"CLASSIFICATION_TYPE":"U","NORAD_CAT_ID":31471,"ELEMENT_SET_NO":999,"REV_AT_EPOCH":65246,"BSTAR":0.001683,"MEAN_MOTION_DOT":3.652e-5,"MEAN_MOTION_DDOT":0},{"OBJECT_NAME":"FENGYUN 1C DEB","OBJECT_ID":"1999-025BVM","EPOCH":"2026-04-04T08:50:40.091712","MEAN_MOTION":14.30693782,"ECCENTRICITY":0.00648492,"INCLINATION":98.5304,"RA_OF_ASC_NODE":130.3537,"ARG_OF_PERICENTER":44.426,"MEAN_ANOMALY":331.1874,"EPHEMERIS_TYPE":0,"CLASSIFICATION_TYPE":"U","NORAD_CAT_ID":31473,"ELEMENT_SET_NO":999,"REV_AT_EPOCH":71131,"BSTAR":0.0021956996,"MEAN_MOTION_DOT":5.837e-5,"MEAN_MOTION_DDOT":0},{"OBJECT_NAME":"FENGYUN 1C DEB","OBJECT_ID":"1999-025BVN","EPOCH":"2026-04-03T02:06:49.737024","MEAN_MOTION":14.11138918,"ECCENTRICITY":0.00688652,"INCLINATION":99.135,"RA_OF_ASC_NODE":145.8765,"ARG_OF_PERICENTER":252.37,"MEAN_ANOMALY":106.9942,"EPHEMERIS_TYPE":0,"CLASSIFICATION_TYPE":"U","NORAD_CAT_ID":31474,"ELEMENT_SET_NO":999,"REV_AT_EPOCH":96540,"BSTAR":0.0017125925,"MEAN_MOTION_DOT":3.109e-5,"MEAN_MOTION_DDOT":0},{"OBJECT_NAME":"FENGYUN 1C DEB","OBJECT_ID":"1999-025BVP","EPOCH":"2026-03-31T22:51:40.245696","MEAN_MOTION":14.38963409,"ECCENTRICITY":0.020917,"INCLINATION":98.9314,"RA_OF_ASC_NODE":349.2001,"ARG_OF_PERICENTER":144.6057,"MEAN_ANOMALY":216.9221,"EPHEMERIS_TYPE":0,"CLASSIFICATION_TYPE":"U","NORAD_CAT_ID":31475,"ELEMENT_SET_NO":999,"REV_AT_EPOCH":97649,"BSTAR":0.0006990962,"MEAN_MOTION_DOT":2.731e-5,"MEAN_MOTION_DDOT":0},{"OBJECT_NAME":"FENGYUN 1C DEB","OBJECT_ID":"1999-025BVQ","EPOCH":"2026-04-04T11:28:52.982400","MEAN_MOTION":14.22863495,"ECCENTRICITY":0.00517328,"INCLINATION":98.885,"RA_OF_ASC_NODE":173.9876,"ARG_OF_PERICENTER":205.3432,"MEAN_ANOMALY":154.5207,"EPHEMERIS_TYPE":0,"CLASSIFICATION_TYPE":"U","NORAD_CAT_ID":31476,"ELEMENT_SET_NO":999,"REV_AT_EPOCH":97302,"BSTAR":0.0018785568,"MEAN_MOTION_DOT":4.235e-5,"MEAN_MOTION_DDOT":0},{"OBJECT_NAME":"FENGYUN 1C DEB","OBJECT_ID":"1999-025BVR","EPOCH":"2026-04-03T09:18:07.140096","MEAN_MOTION":14.03021889,"ECCENTRICITY":0.01108231,"INCLINATION":98.8987,"RA_OF_ASC_NODE":85.5188,"ARG_OF_PERICENTER":77.5175,"MEAN_ANOMALY":283.8364,"EPHEMERIS_TYPE":0,"CLASSIFICATION_TYPE":"U","NORAD_CAT_ID":31477,"ELEMENT_SET_NO":999,"REV_AT_EPOCH":96969,"BSTAR":0.00029631254,"MEAN_MOTION_DOT":4.43e-6,"MEAN_MOTION_DDOT":0},{"OBJECT_NAME":"FENGYUN 1C DEB","OBJECT_ID":"1999-025BVU","EPOCH":"2026-04-04T12:29:55.952736","MEAN_MOTION":13.91202561,"ECCENTRICITY":0.03399866,"INCLINATION":98.3349,"RA_OF_ASC_NODE":299.4119,"ARG_OF_PERICENTER":267.6434,"MEAN_ANOMALY":88.5771,"EPHEMERIS_TYPE":0,"CLASSIFICATION_TYPE":"U","NORAD_CAT_ID":31480,"ELEMENT_SET_NO":999,"REV_AT_EPOCH":94963,"BSTAR":0.0036199508,"MEAN_MOTION_DOT":7.26e-5,"MEAN_MOTION_DDOT":0},{"OBJECT_NAME":"FENGYUN 1C DEB","OBJECT_ID":"1999-025BVW","EPOCH":"2026-04-03T11:44:24.446976","MEAN_MOTION":14.36180261,"ECCENTRICITY":0.00878253,"INCLINATION":98.3854,"RA_OF_ASC_NODE":99.2961,"ARG_OF_PERICENTER":309.1286,"MEAN_ANOMALY":205.1872,"EPHEMERIS_TYPE":0,"CLASSIFICATION_TYPE":"U","NORAD_CAT_ID":31482,"ELEMENT_SET_NO":999,"REV_AT_EPOCH":98733,"BSTAR":0.0011583364,"MEAN_MOTION_DOT":3.487e-5,"MEAN_MOTION_DDOT":0},{"OBJECT_NAME":"FENGYUN 1C DEB","OBJECT_ID":"1999-025BVX","EPOCH":"2026-04-03T18:05:24.013824","MEAN_MOTION":14.17526743,"ECCENTRICITY":0.01181098,"INCLINATION":102.5089,"RA_OF_ASC_NODE":93.9075,"ARG_OF_PERICENTER":302.7764,"MEAN_ANOMALY":240.1478,"EPHEMERIS_TYPE":0,"CLASSIFICATION_TYPE":"U","NORAD_CAT_ID":31483,"ELEMENT_SET_NO":999,"REV_AT_EPOCH":96292,"BSTAR":0.0027961978,"MEAN_MOTION_DOT":6.009e-5,"MEAN_MOTION_DDOT":0}]
